ONEWEB-0517             
1 54135U 22138Y   23265.92278137  .00000005  00000+0 -19974-4 0  9990
2 54135  87.9248 143.6495 0001969  87.3801 272.7557 13.19728348 45169
ONEWEB-0518             
1 54136U 22138Z   23265.71427633  .00000030  00000+0  42882-4 0  9996
2 54136  87.9245 143.6907 0001665  81.8715 278.2607 13.19728824 45134
ONEWEB-0519             
1 54137U 22138AA  23265.73955886  .00000030  00000+0  41721-4 0  9996
2 54137  87.9249 143.6838 0002061  89.6074 270.5295 13.19728437 45146
ONEWEB-0520             
1 54138U 22138AB  23265.92594546 -.00000712  00000+0 -18119-2 0  9992
2 54138  87.9203 143.6499 0002374  85.5827 274.5577 13.19719954 45150
ONEWEB-0521             
1 54139U 22138AC  23265.73165441  .00000013  00000+0  29703-6 0  9997
2 54139  87.9247 143.6844 0001522  85.7439 274.3868 13.19724821 45079
ONEWEB-0522             
1 54140U 22138AD  23265.93858116 -.00000020  00000+0 -81114-4 0  9991
2 54140  87.9246 143.6457 0001879  75.5667 284.5674 13.19728036 45143
ONEWEB-0523             
1 54141U 22138AE  23265.63227447  .00000059  00000+0  11315-3 0  9991
2 54141  87.9170 113.2447 0000945  41.1535 318.9670 13.20771263 47498
ONEWEB-0524             
1 54142U 22138AF  23265.84691576  .00000026  00000+0  31738-4 0  9999
2 54142  87.9198 113.1790 0002166  49.0724 311.0597 13.20769820 47525
